ORBCOMM FM37            
1 33064U 08031E   25020.24029039  .00004889  00000+0  68646-3 0  9997
2 33064  48.4408 326.5089 0005605  95.9052  46.3818 14.78745882892468
ORBCOMM FM40            
1 33065U 08031F   25020.23230472  .00006178  00000+0  82070-3 0  9992
2 33065  48.4422 312.9159 0007053 108.4738  44.4914 14.80716028892663
VESSELSAT 1             
1 37840U 11058C   25019.90784696  .00000498  00000+0  12719-3 0  9996
2 37840  19.9619 271.0993 0013619 355.9796   4.0498 14.11296264685330
ORBCOMM FM109           
1 40086U 14040A   25020.30141903  .00002213  00000+0  51677-3 0  9993
2 40086  47.0051 354.5172 0002045 354.7810   5.3053 14.57702266559604
ORBCOMM FM107           
1 40087U 14040B   25020.26791610  .00001951  00000+0  45929-3 0  9996
2 40087  47.0067 355.6890 0002047 316.1068  43.9654 14.57768732559593
ORBCOMM FM106           
1 40088U 14040C   25020.52169133  .00003504  00000+0  62564-3 0  9995
2 40088  47.0579 188.3145 0016537 103.8155 256.4577 14.68734739561975
ORBCOMM FM111           
1 40089U 14040D   25020.47354367  .00005721  00000+0  68474-3 0  9994
2 40089  47.0023  58.2728 0030745 208.7470 151.1733 14.84831860568269
ORBCOMM FM104           
1 40090U 14040E   25020.09631252  .00001679  00000+0  41335-3 0  9990
2 40090  47.0062  28.3523 0017334 250.7182 109.1828 14.56219635559134
